{"fetched_at":"2026-07-16T06:42:55.153Z","source":"https://celestrak.org/NORAD/elements/gp.php?NAME=GHGSAT&FORMAT=JSON","constellation":"ghgsat","records":[{"OBJECT_NAME":"GHGSAT-C1","OBJECT_ID":"2020-061G","EPOCH":"2026-07-15T05:28:01.341120","CLASSIFICATION_TYPE":"U","MEAN_MOTION":15.73451186,"ECCENTRICITY":0.00009708,"INCLINATION":97.2099,"RA_OF_ASC_NODE":282.3149,"ARG_OF_PERICENTER":177.1051,"MEAN_ANOMALY":183.0219,"EPHEMERIS_TYPE":0,"NORAD_CAT_ID":46278,"ELEMENT_SET_NO":999,"REV_AT_EPOCH":32788,"BSTAR":0.00020990661,"MEAN_MOTION_DOT":0.0002903,"MEAN_MOTION_DDOT":0},{"OBJECT_NAME":"GHGSAT-C2","OBJECT_ID":"2021-006DA","EPOCH":"2026-07-15T12:24:50.762880","CLASSIFICATION_TYPE":"U","MEAN_MOTION":15.38110725,"ECCENTRICITY":0.0006713,"INCLINATION":97.2131,"RA_OF_ASC_NODE":243.2994,"ARG_OF_PERICENTER":74.8602,"MEAN_ANOMALY":285.3385,"EPHEMERIS_TYPE":0,"NORAD_CAT_ID":47509,"ELEMENT_SET_NO":999,"REV_AT_EPOCH":30420,"BSTAR":0.0001008,"MEAN_MOTION_DOT":0.00003702,"MEAN_MOTION_DDOT":0},{"OBJECT_NAME":"GHGSAT-C3","OBJECT_ID":"2022-057F","EPOCH":"2026-07-15T22:20:29.049792","CLASSIFICATION_TYPE":"U","MEAN_MOTION":15.34684069,"ECCENTRICITY":0.00062424,"INCLINATION":97.6634,"RA_OF_ASC_NODE":343.6761,"ARG_OF_PERICENTER":32.9136,"MEAN_ANOMALY":327.2494,"EPHEMERIS_TYPE":0,"NORAD_CAT_ID":52737,"ELEMENT_SET_NO":999,"REV_AT_EPOCH":22994,"BSTAR":0.00010401839,"MEAN_MOTION_DOT":0.00003412,"MEAN_MOTION_DDOT":0},{"OBJECT_NAME":"GHGSAT-C5","OBJECT_ID":"2022-057N","EPOCH":"2026-07-15T23:17:09.404736","CLASSIFICATION_TYPE":"U","MEAN_MOTION":15.34661105,"ECCENTRICITY":0.00069485,"INCLINATION":97.672,"RA_OF_ASC_NODE":345.3241,"ARG_OF_PERICENTER":29.7198,"MEAN_ANOMALY":330.4438,"EPHEMERIS_TYPE":0,"NORAD_CAT_ID":52744,"ELEMENT_SET_NO":999,"REV_AT_EPOCH":22995,"BSTAR":0.00010600288,"MEAN_MOTION_DOT":0.00003476,"MEAN_MOTION_DDOT":0},{"OBJECT_NAME":"GHGSAT-C4","OBJECT_ID":"2022-057Q","EPOCH":"2026-07-15T22:50:20.185728","CLASSIFICATION_TYPE":"U","MEAN_MOTION":15.34671406,"ECCENTRICITY":0.00060735,"INCLINATION":97.656,"RA_OF_ASC_NODE":342.4998,"ARG_OF_PERICENTER":16.8181,"MEAN_ANOMALY":343.3262,"EPHEMERIS_TYPE":0,"NORAD_CAT_ID":52746,"ELEMENT_SET_NO":999,"REV_AT_EPOCH":22995,"BSTAR":0.00010562504,"MEAN_MOTION_DOT":0.00003464,"MEAN_MOTION_DDOT":0},{"OBJECT_NAME":"GHGSAT-C8","OBJECT_ID":"2023-054J","EPOCH":"2026-07-15T19:50:30.831072","CLASSIFICATION_TYPE":"U","MEAN_MOTION":15.53785187,"ECCENTRICITY":0.00028447,"INCLINATION":97.2963,"RA_OF_ASC_NODE":106.5511,"ARG_OF_PERICENTER":359.3132,"MEAN_ANOMALY":0.8118,"EPHEMERIS_TYPE":0,"NORAD_CAT_ID":56186,"ELEMENT_SET_NO":999,"REV_AT_EPOCH":18288,"BSTAR":0.00016087507,"MEAN_MOTION_DOT":0.00010221,"MEAN_MOTION_DDOT":0},{"OBJECT_NAME":"GHGSAT-C6","OBJECT_ID":"2023-054AC","EPOCH":"2026-07-15T23:40:05.800800","CLASSIFICATION_TYPE":"U","MEAN_MOTION":15.53762064,"ECCENTRICITY":0.00034097,"INCLINATION":97.3024,"RA_OF_ASC_NODE":107.4175,"ARG_OF_PERICENTER":302.4059,"MEAN_ANOMALY":57.6864,"EPHEMERIS_TYPE":0,"NORAD_CAT_ID":56204,"ELEMENT_SET_NO":999,"REV_AT_EPOCH":18292,"BSTAR":0.00014274138,"MEAN_MOTION_DOT":0.0000905,"MEAN_MOTION_DDOT":0},{"OBJECT_NAME":"GHGSAT-C7","OBJECT_ID":"2023-054AH","EPOCH":"2026-07-15T23:40:33.886848","CLASSIFICATION_TYPE":"U","MEAN_MOTION":15.50454893,"ECCENTRICITY":0.00049391,"INCLINATION":97.2972,"RA_OF_ASC_NODE":105.7309,"ARG_OF_PERICENTER":300.1966,"MEAN_ANOMALY":59.8796,"EPHEMERIS_TYPE":0,"NORAD_CAT_ID":56209,"ELEMENT_SET_NO":999,"REV_AT_EPOCH":18285,"BSTAR":0.00011221416,"MEAN_MOTION_DOT":0.00006295,"MEAN_MOTION_DDOT":0},{"OBJECT_NAME":"GHGSAT-C12","OBJECT_ID":"2025-135B","EPOCH":"2026-07-15T21:04:09.632928","CLASSIFICATION_TYPE":"U","MEAN_MOTION":15.2044758,"ECCENTRICITY":0.00063848,"INCLINATION":97.4772,"RA_OF_ASC_NODE":311.4367,"ARG_OF_PERICENTER":79.1968,"MEAN_ANOMALY":280.9986,"EPHEMERIS_TYPE":0,"NORAD_CAT_ID":64529,"ELEMENT_SET_NO":999,"REV_AT_EPOCH":5918,"BSTAR":0.000084735969,"MEAN_MOTION_DOT":0.0000178,"MEAN_MOTION_DDOT":0},{"OBJECT_NAME":"GHGSAT-C13","OBJECT_ID":"2025-135W","EPOCH":"2026-07-15T20:45:52.630272","CLASSIFICATION_TYPE":"U","MEAN_MOTION":15.21407064,"ECCENTRICITY":0.00018819,"INCLINATION":97.4805,"RA_OF_ASC_NODE":312.0405,"ARG_OF_PERICENTER":67.1589,"MEAN_ANOMALY":292.9846,"EPHEMERIS_TYPE":0,"NORAD_CAT_ID":64548,"ELEMENT_SET_NO":999,"REV_AT_EPOCH":5921,"BSTAR":0.00014203388,"MEAN_MOTION_DOT":0.00003117,"MEAN_MOTION_DDOT":0}]}
