GHGSAT-C1               
1 46278U 20061G   26196.22779330  .00029030  00000+0  20991-3 0  9990
2 46278  97.2099 282.3149 0000970 177.1051 183.0219 15.73451186327885
GHGSAT-C2               
1 47509U 21006DA  26196.51725420  .00003702  00000+0  10080-3 0  9997
2 47509  97.2131 243.2994 0006713  74.8602 285.3385 15.38110725304203
GHGSAT-C3               
1 52737U 22057F   26196.93089178  .00003412  00000+0  10402-3 0  9998
2 52737  97.6634 343.6761 0006242  32.9136 327.2494 15.34684069229942
GHGSAT-C5               
1 52744U 22057N   26196.97024774  .00003476  00000+0  10600-3 0  9991
2 52744  97.6720 345.3241 0006948  29.7198 330.4438 15.34661105229954
GHGSAT-C4               
1 52746U 22057Q   26196.95162252  .00003464  00000+0  10563-3 0  9990
2 52746  97.6560 342.4998 0006073  16.8181 343.3262 15.34671406229956
GHGSAT-C8               
1 56186U 23054J   26196.82674573  .00010221  00000+0  16088-3 0  9997
2 56186  97.2963 106.5511 0002844 359.3132   0.8118 15.53785187182882
GHGSAT-C6               
1 56204U 23054AC  26196.98617825  .00009050  00000+0  14274-3 0  9995
2 56204  97.3024 107.4175 0003409 302.4059  57.6864 15.53762064182925
GHGSAT-C7               
1 56209U 23054AH  26196.98650332  .00006295  00000+0  11221-3 0  9997
2 56209  97.2972 105.7309 0004939 300.1966  59.8796 15.50454893182857
GHGSAT-C12              
1 64529U 25135B   26196.87788927  .00001780  00000+0  84736-4 0  9999
2 64529  97.4772 311.4367 0006384  79.1968 280.9986 15.20447580 59181
GHGSAT-C13              
1 64548U 25135W   26196.86519248  .00003117  00000+0  14203-3 0  9994
2 64548  97.4805 312.0405 0001881  67.1589 292.9846 15.21407064 59218
